NORAD_CAT_ID,OBJECT_NAME,OBJECT_TYPE,EPOCH,MEAN_MOTION,ECCENTRICITY,INCLINATION,RA_OF_ASC_NODE,ARG_OF_PERICENTER,MEAN_ANOMALY,BSTAR,MEAN_MOTION_DOT,MEAN_MOTION_DDOT,TLE_LINE0,TLE_LINE1,TLE_LINE2,SEMIMAJOR_AXIS,PERIOD,APOGEE,PERIGEE,DECAYED
53272.0,STARLINK-4122,PAYLOAD,2023-10-08 03:18:35,15.08850474,0.0001614,53.217,190.5394,88.181,271.9367,9.0973e-05,1.16e-05,0.0,0 STARLINK-4122,1 53272U 22086AG  23281.13790803  .00001160  00000-0  90973-4 0  9994,2 53272  53.2170 190.5394 0001614  88.1810 271.9367 15.08850474 67637,6917.848,95.437,540.83,538.597,0.0
53272.0,STARLINK-4122,PAYLOAD,2023-10-08 11:15:31,15.08846317,0.0001803,53.2176,189.0533,80.8261,279.2935,5.2965e-05,5.55e-06,0.0,0 STARLINK-4122,1 53272U 22086AG  23281.46911191  .00000555  00000-0  52965-4 0  9991,2 53272  53.2176 189.0533 0001803  80.8261 279.2935 15.08846317 67868,6917.861,95.437,540.973,538.479,0.0
53272.0,STARLINK-4122,PAYLOAD,2023-10-09 03:09:21,15.08859711,0.0001692,53.2173,186.0794,83.7252,276.3933,0.00017231,2.457e-05,0.0,0 STARLINK-4122,1 53272U 22086AG  23282.13149962  .00002457  00000-0  17231-3 0  9994,2 53272  53.2173 186.0794 0001692  83.7252 276.3933 15.08859711 67788,6917.82,95.436,540.856,538.515,0.0
53272.0,STARLINK-4122,PAYLOAD,2023-10-09 11:06:18,15.08838187,0.0001711,53.2174,184.5934,89.8504,270.2684,-1.9751e-05,-6.02e-06,0.0,0 STARLINK-4122,1 53272U 22086AG  23282.46271725 -.00000602  00000-0 -19751-4 0  9995,2 53272  53.2174 184.5934 0001711  89.8504 270.2684 15.08838187 68014,6917.886,95.438,540.935,538.567,0.0
53272.0,STARLINK-4122,PAYLOAD,2023-10-09 17:27:51,15.0883261,0.000197,53.2172,183.4039,90.4674,269.6544,2.8948e-05,1.72e-06,0.0,0 STARLINK-4122,1 53272U 22086AG  23282.72768117  .00000172  00000-0  28948-4 0  9998,2 53272  53.2172 183.4039 0001970  90.4674 269.6544 15.08832610 67874,6917.903,95.438,541.131,538.405,0.0
53272.0,STARLINK-4122,PAYLOAD,2023-10-09 23:49:23,15.08841025,0.0001684,53.2173,182.2156,91.3025,268.816,-3.2069e-05,-7.98e-06,0.0,0 STARLINK-4122,1 53272U 22086AG  23282.99263826 -.00000798  00000-0 -32069-4 0  9999,2 53272  53.2173 182.2156 0001684  91.3025 268.8160 15.08841025 67914,6917.877,95.437,540.907,538.577,0.0
53272.0,STARLINK-4122,PAYLOAD,2023-10-10 22:04:47,15.08836794,0.0001272,53.2173,178.0523,93.5725,266.5413,3.028e-05,1.94e-06,0.0,0 STARLINK-4122,1 53272U 22086AG  23283.91999875  .00000194  00000-0  30280-4 0  9993,2 53272  53.2173 178.0523 0001272  93.5725 266.5413 15.08836794 68238,6917.89,95.438,540.635,538.875,0.0
53272.0,STARLINK-4122,PAYLOAD,2023-10-11 02:50:56,15.08851228,0.0001304,53.2167,177.1572,98.3012,261.8128,-1.8228e-05,-5.78e-06,0.0,0 STARLINK-4122,1 53272U 22086AG  23284.11871068 -.00000578  00000-0 -18228-4 0  9995,2 53272  53.2167 177.1572 0001304  98.3012 261.8128 15.08851228 68086,6917.846,95.437,540.613,538.809,0.0
53272.0,STARLINK-4122,PAYLOAD,2023-10-12 01:06:21,15.08842208,0.0001476,53.2172,172.9962,89.7521,270.364,8.1235e-05,1.005e-05,0.0,0 STARLINK-4122,1 53272U 22086AG  23285.04607840  .00001005  00000-0  81235-4 0  9995,2 53272  53.2172 172.9962 0001476  89.7521 270.3640 15.08842208 68225,6917.874,95.437,540.76,538.718,0.0
53272.0,STARLINK-4122,PAYLOAD,2023-10-12 21:46:22,15.08841372,0.0001371,53.2169,169.1326,91.2759,268.839,0.00010898,1.447e-05,0.0,0 STARLINK-4122,1 53272U 22086AG  23285.90720020  .00001447  00000-0  10898-3 0  9992,2 53272  53.2169 169.1326 0001371  91.2759 268.8390 15.08841372 68537,6917.876,95.437,540.69,538.793,0.0
53272.0,STARLINK-4122,PAYLOAD,2023-10-13 08:54:03,15.08848406,0.0001443,53.2171,167.0467,79.9102,280.2053,8.094e-05,1.001e-05,0.0,0 STARLINK-4122,1 53272U 22086AG  23286.37087338  .00001001  00000-0  80940-4 0  9994,2 53272  53.2171 167.0467 0001443  79.9102 280.2053 15.08848406 68425,6917.855,95.437,540.718,538.721,0.0
53272.0,STARLINK-4122,PAYLOAD,2023-10-13 20:01:46,15.0883701,0.0001369,53.2169,164.9687,88.1944,271.9205,-2.891e-06,-3.34e-06,0.0,0 STARLINK-4122,1 53272U 22086AG  23286.83456593 -.00000334  00000-0 -28910-5 0  9998,2 53272  53.2169 164.9687 0001369  88.1944 271.9205 15.08837010 68497,6917.89,95.438,540.702,538.807,0.0
53272.0,STARLINK-4122,PAYLOAD,2023-10-13 21:37:09,15.08839041,0.000144,53.2168,164.672,92.5612,267.5545,1.6452e-05,-2.6e-07,0.0,0 STARLINK-4122,1 53272U 22086AG  23286.90080404 -.00000026  00000-0  16452-4 0  9994,2 53272  53.2168 164.6720 0001440  92.5612 267.5545 15.08839041 68687,6917.883,95.438,540.744,538.752,0.0
53272.0,STARLINK-4122,PAYLOAD,2023-10-14 02:23:17,15.08851806,0.0001361,53.2169,163.7771,84.6942,275.4205,0.00010946,1.455e-05,0.0,0 STARLINK-4122,1 53272U 22086AG  23287.09951267  .00001455  00000-0  10946-3 0  9996,2 53272  53.2169 163.7771 0001361  84.6942 275.4205 15.08851806 68532,6917.844,95.437,540.651,538.768,0.0
53272.0,STARLINK-4122,PAYLOAD,2023-10-14 08:44:52,15.08829557,0.0002054,53.217,162.5883,86.7807,273.342,-6.1203e-05,-1.262e-05,0.0,0 STARLINK-4122,1 53272U 22086AG  23287.36449398 -.00001262  00000-0 -61203-4 0  9994,2 53272  53.2170 162.5883 0002054  86.7807 273.3420 15.08829557 68576,6917.912,95.438,541.198,538.356,0.0
53272.0,STARLINK-4122,PAYLOAD,2023-10-14 21:27:57,15.0883782,0.0001637,53.2166,160.2088,98.0854,262.0323,-0.0001214,-2.22e-05,0.0,0 STARLINK-4122,1 53272U 22086AG  23287.89441167 -.00002220  00000-0 -12140-3 0  9998,2 53272  53.2166 160.2088 0001637  98.0854 262.0323 15.08837820 68835,6917.887,95.438,540.885,538.62,0.0
53272.0,STARLINK-4122,PAYLOAD,2023-10-15 00:38:43,15.08841739,0.0001615,53.2168,159.6148,98.1488,261.9687,-7.9624e-05,-1.555e-05,0.0,0 STARLINK-4122,1 53272U 22086AG  23288.02688812 -.00001555  00000-0 -79624-4 0  9995,2 53272  53.2168 159.6148 0001615  98.1488 261.9687 15.08841739 68673,6917.875,95.437,540.857,538.623,0.0
53272.0,STARLINK-4122,PAYLOAD,2023-10-15 21:18:43,15.08843758,0.0001582,53.2169,155.7493,87.137,272.9803,4.9191e-05,4.95e-06,0.0,0 STARLINK-4122,1 53272U 22086AG  23288.88800598  .00000495  00000-0  49191-4 0  9992,2 53272  53.2169 155.7493 0001582  87.1370 272.9803 15.08843758 68984,6917.869,95.437,540.828,538.639,0.0
53272.0,STARLINK-4122,PAYLOAD,2023-10-16 08:26:25,15.08846114,0.0001424,53.2164,153.6656,87.7387,272.3768,5.0505e-05,5.16e-06,0.0,0 STARLINK-4122,1 53272U 22086AG  23289.35168342  .00000516  00000-0  50505-4 0  9994,2 53272  53.2164 153.6656 0001424  87.7387 272.3768 15.08846114 68877,6917.862,95.437,540.712,538.742,0.0
53272.0,STARLINK-4122,PAYLOAD,2023-10-17 08:17:12,15.08843358,0.0001423,53.2163,149.2031,98.2997,261.8157,9.6903e-05,1.255e-05,0.0,0 STARLINK-4122,1 53272U 22086AG  23290.34528415  .00001255  00000-0  96903-4 0  9999,2 53272  53.2163 149.2031 0001423  98.2997 261.8157 15.08843358 69027,6917.87,95.437,540.72,538.751,0.0
53272.0,STARLINK-4122,PAYLOAD,2023-10-18 00:11:03,15.08850566,0.000146,53.2161,146.2326,90.1298,269.9861,6.2277e-05,7.04e-06,0.0,0 STARLINK-4122,1 53272U 22086AG  23291.00767911  .00000704  00000-0  62277-4 0  9994,2 53272  53.2161 146.2326 0001460  90.1298 269.9861 15.08850566 69306,6917.848,95.437,540.723,538.703,0.0
53272.0,STARLINK-4122,PAYLOAD,2023-10-18 20:51:04,15.08846481,0.0001241,53.2081,142.3655,102.0948,258.0184,6.5188e-05,7.5e-06,0.0,0 STARLINK-4122,1 53272U 22086AG  23291.86879742  .00000750  00000-0  65188-4 0  9999,2 53272  53.2081 142.3655 0001241 102.0948 258.0184 15.08846481 69253,6917.861,95.437,540.584,538.867,0.0
53272.0,STARLINK-4122,PAYLOAD,2023-10-20 14:11:06,15.08841925,0.0001683,53.2161,134.6335,96.4807,263.6376,3.4127e-05,2.55e-06,0.0,0 STARLINK-4122,1 53272U 22086AG  23293.59104281  .00000255  00000-0  34127-4 0  9999,2 53272  53.2161 134.6335 0001683  96.4807 263.6376 15.08841925 69692,6917.875,95.437,540.904,538.575,0.0
53272.0,STARLINK-4122,PAYLOAD,2023-10-21 12:26:30,15.08836311,0.0001234,53.2166,130.4725,93.5559,266.5575,4.0045e-05,3.49e-06,0.0,0 STARLINK-4122,1 53272U 22086AG  23294.51840817  .00000349  00000-0  40045-4 0  9994,2 53272  53.2166 130.4725 0001234  93.5559 266.5575 15.08836311 69830,6917.892,95.438,540.61,538.903,0.0
53272.0,STARLINK-4122,PAYLOAD,2023-10-21 18:48:02,15.08837398,0.0001193,53.2151,129.284,95.3097,264.8031,0.00013481,1.858e-05,0.0,0 STARLINK-4122,1 53272U 22086AG  23294.78336377  .00001858  00000-0  13481-3 0  9993,2 53272  53.2151 129.2840 0001193  95.3097 264.8031 15.08837398 69697,6917.888,95.438,540.579,538.928,0.0
53272.0,STARLINK-4122,PAYLOAD,2023-10-21 20:23:25,15.0883777,0.0001237,53.2152,128.9861,97.5207,262.5925,0.00013911,1.927e-05,0.0,0 STARLINK-4122,1 53272U 22086AG  23294.84960360  .00001927  00000-0  13911-3 0  9990,2 53272  53.2152 128.9861 0001237  97.5207 262.5925 15.08837770 69885,6917.887,95.438,540.608,538.896,0.0
53272.0,STARLINK-4122,PAYLOAD,2023-10-22 04:20:22,15.0882356,0.0001405,53.2148,127.4984,82.4949,277.6202,-8.7878e-05,-1.686e-05,0.0,0 STARLINK-4122,1 53272U 22086AG  23295.18081193 -.00001686  00000-0 -87878-4 0  9994,2 53272  53.2148 127.4984 0001405  82.4949 277.6202 15.08823560 69756,6917.931,95.439,540.768,538.824,0.0
53272.0,STARLINK-4122,PAYLOAD,2023-10-22 12:17:17,15.08826077,0.0001269,53.2149,126.0115,88.8333,271.2804,-0.00011623,-2.136e-05,0.0,0 STARLINK-4122,1 53272U 22086AG  23295.51201124 -.00002136  00000-0 -11623-3 0  9994,2 53272  53.2149 126.0115 0001269  88.8333 271.2804 15.08826077 69982,6917.923,95.438,540.666,538.91,0.0
53272.0,STARLINK-4122,PAYLOAD,2023-10-22 20:14:13,15.08831942,0.0001263,53.2149,124.5249,88.4267,271.687,3.7223e-05,3.04e-06,0.0,0 STARLINK-4122,1 53272U 22086AG  23295.84321094  .00000304  00000-0  37223-4 0  9997,2 53272  53.2149 124.5249 0001263  88.4267 271.6870 15.08831942 69859,6917.905,95.438,540.644,538.896,0.0
53272.0,STARLINK-4122,PAYLOAD,2023-10-22 21:49:36,15.08833485,0.0001262,53.2149,124.2277,87.907,272.2067,0.00010479,1.38e-05,0.0,0 STARLINK-4122,1 53272U 22086AG  23295.90945118  .00001380  00000-0  10479-3 0  9991,2 53272  53.2149 124.2277 0001262  87.9070 272.2067 15.08833485 70044,6917.9,95.438,540.638,538.892,0.0
